{
  "type": "FeatureCollection",
  "features": [
    {
      "type": "Feature",
      "geometry": {
        "type": "Point",
        "coordinates": [
          -0.4868233,
          51.47006
        ]
      },
      "properties": {
        "airside": "yes",
        "amenity": "lounge",
        "charge": "45.00 GBP",
        "check_date": "2026-02-04",
        "fee": "yes",
        "food": "yes",
        "indoor": "yes",
        "internet_access": "wlan",
        "level": "2",
        "membership": "yes",
        "name": "Club Aspire",
        "opening_hours": "Mo-Su 05:00-21:00",
        "operator": "Swissport International AG",
        "shower": "yes",
        "toilets": "no",
        "website": "https://www.executivelounges.com/airport-lounges/london-heathrow-terminal-5-aspire-airport-lounge",
        "wheelchair": "yes",
        "osm_id": 5459152927,
        "osm_type": "node"
      }
    },
    {
      "type": "Feature",
      "geometry": {
        "type": "Point",
        "coordinates": [
          -0.4490268,
          51.4689945
        ]
      },
      "properties": {
        "amenity": "lounge",
        "check_date": "2022-12-27",
        "level": "5",
        "name": "Lufthansa Business Lounge",
        "opening_hours": "Mo-Su 05:00-22:00",
        "osm_id": 7375612584,
        "osm_type": "node"
      }
    },
    {
      "type": "Feature",
      "geometry": {
        "type": "Point",
        "coordinates": [
          -0.4491396,
          51.4690633
        ]
      },
      "properties": {
        "amenity": "lounge",
        "level": "5",
        "name": "Lufthansa Senator Lounge",
        "opening_hours": "Mo-Su 05:00-22:00",
        "osm_id": 7375617885,
        "osm_type": "node"
      }
    },
    {
      "type": "Feature",
      "geometry": {
        "type": "Point",
        "coordinates": [
          -0.448319,
          51.4689989
        ]
      },
      "properties": {
        "amenity": "lounge",
        "check_date": "2022-12-27",
        "level": "5",
        "name": "Aer Lingus Gold Circle Lounge",
        "osm_id": 7375617886,
        "osm_type": "node"
      }
    },
    {
      "type": "Feature",
      "geometry": {
        "type": "Point",
        "coordinates": [
          -0.4497302,
          51.4700725
        ]
      },
      "properties": {
        "amenity": "lounge",
        "level": "4",
        "name": "Plaza Premium Lounge",
        "osm_id": 7375617887,
        "osm_type": "node"
      }
    },
    {
      "type": "Feature",
      "geometry": {
        "type": "Point",
        "coordinates": [
          -0.4874876,
          51.4704031
        ]
      },
      "properties": {
        "access": "customers",
        "airside": "yes",
        "amenity": "lounge",
        "bar": "yes",
        "customers": "airline",
        "description": "Access for eligible customers traveling on any oneworld member airline.",
        "food": "yes",
        "indoor": "yes",
        "internet_access": "wlan",
        "level": "4",
        "level_ref": "4",
        "membership": "yes",
        "name": "BA Galleries Club Lounge South",
        "operator": "British Airways",
        "toilets": "yes",
        "osm_id": 12248433670,
        "osm_type": "node"
      }
    },
    {
      "type": "Feature",
      "geometry": {
        "type": "Point",
        "coordinates": [
          -0.4815293,
          51.4708342
        ]
      },
      "properties": {
        "access": "customers",
        "airside": "yes",
        "amenity": "lounge",
        "customers": "airline",
        "food": "yes",
        "internet_access": "wlan",
        "level": "2",
        "membership": "yes",
        "name": "BA Galleries Club Lounge",
        "operator": "British Airways",
        "toilets": "yes",
        "osm_id": 12248433671,
        "osm_type": "node"
      }
    },
    {
      "type": "Feature",
      "geometry": {
        "type": "Point",
        "coordinates": [
          -0.4456715,
          51.460823
        ]
      },
      "properties": {
        "access": "customers",
        "air_conditioning": "yes",
        "amenity": "lounge",
        "bar": "yes",
        "check_date": "2024-11-20",
        "internet_access": "wlan",
        "internet_access:fee": "customers",
        "level": "1",
        "lit": "yes",
        "name": "Plaza Prenium Lounge",
        "outdoor_seating": "no",
        "self_service": "yes",
        "smoking": "no",
        "takeaway": "no",
        "toilets": "yes",
        "wheelchair": "yes",
        "osm_id": 12357784357,
        "osm_type": "node"
      }
    },
    {
      "type": "Feature",
      "geometry": {
        "type": "Point",
        "coordinates": [
          -0.4872407,
          51.4730846
        ]
      },
      "properties": {
        "airside": "yes",
        "amenity": "lounge",
        "check_date": "2026-02-09",
        "level": "3",
        "name": "British Airways Club Lounge North",
        "osm_id": 13538554316,
        "osm_type": "node"
      }
    },
    {
      "type": "Feature",
      "geometry": {
        "type": "Point",
        "coordinates": [
          -0.447975,
          51.4693633
        ]
      },
      "properties": {
        "amenity": "lounge",
        "level": "2",
        "name": "No1 Lounge",
        "osm_id": 13758343917,
        "osm_type": "node"
      }
    },
    {
      "type": "Feature",
      "geometry": {
        "type": "Polygon",
        "coordinates": [
          [
            [
              -0.4880923,
              51.4706973
            ],
            [
              -0.4877485,
              51.4706973
            ],
            [
              -0.4877485,
              51.4707583
            ],
            [
              -0.4870247,
              51.4707583
            ],
            [
              -0.4870247,
              51.4700479
            ],
            [
              -0.4880923,
              51.4700479
            ],
            [
              -0.4880923,
              51.4706973
            ]
          ]
        ]
      },
      "properties": {
        "access": "customers",
        "airside": "yes",
        "amenity": "lounge",
        "bar": "yes",
        "check_date": "2026-02-09",
        "customers": "airline",
        "food": "yes",
        "indoor": "room",
        "internet_access": "wlan",
        "level": "3",
        "membership": "yes",
        "name": "Concorde Lounge",
        "operator": "British Airways",
        "toilets": "yes",
        "osm_id": 1461185486,
        "osm_type": "way"
      }
    }
  ]
}