{
  "type": "FeatureCollection",
  "features": [
    {
      "type": "Feature",
      "geometry": {
        "type": "Polygon",
        "coordinates": [
          [
            [
              -0.4580276,
              51.4698863
            ],
            [
              -0.4579855,
              51.4698525
            ],
            [
              -0.4579186,
              51.4698848
            ],
            [
              -0.4579606,
              51.4699186
            ],
            [
              -0.4580276,
              51.4698863
            ]
          ]
        ]
      },
      "properties": {
        "amenity": "bureau_de_change",
        "brand": "Travelex",
        "brand:wikidata": "Q2337964",
        "indoor": "room",
        "name": "Travelex",
        "osm_id": 394223348,
        "osm_type": "way"
      }
    },
    {
      "type": "Feature",
      "geometry": {
        "type": "Polygon",
        "coordinates": [
          [
            [
              -0.4582062,
              51.470029
            ],
            [
              -0.458211,
              51.4701033
            ],
            [
              -0.4580838,
              51.4701588
            ],
            [
              -0.4580854,
              51.4700858
            ],
            [
              -0.4582062,
              51.470029
            ]
          ]
        ]
      },
      "properties": {
        "indoor": "room",
        "osm_id": 394223357,
        "osm_type": "way"
      }
    },
    {
      "type": "Feature",
      "geometry": {
        "type": "Polygon",
        "coordinates": [
          [
            [
              -0.458211,
              51.4701033
            ],
            [
              -0.4582244,
              51.4701994
            ],
            [
              -0.4580973,
              51.4702515
            ],
            [
              -0.4580838,
              51.4701588
            ],
            [
              -0.458211,
              51.4701033
            ]
          ]
        ]
      },
      "properties": {
        "indoor": "room",
        "osm_id": 394223363,
        "osm_type": "way"
      }
    },
    {
      "type": "Feature",
      "geometry": {
        "type": "Polygon",
        "coordinates": [
          [
            [
              -0.4884972,
              51.4717824
            ],
            [
              -0.4884984,
              51.471708
            ],
            [
              -0.4884994,
              51.471647
            ],
            [
              -0.4883776,
              51.4716462
            ],
            [
              -0.4883754,
              51.4717816
            ],
            [
              -0.4884972,
              51.4717824
            ]
          ]
        ]
      },
      "properties": {
        "amenity": "toilets",
        "changing_table": "yes",
        "fee": "no",
        "indoor": "room",
        "level": "3",
        "wheelchair": "yes",
        "osm_id": 438299655,
        "osm_type": "way"
      }
    },
    {
      "type": "Feature",
      "geometry": {
        "type": "Polygon",
        "coordinates": [
          [
            [
              -0.4876138,
              51.4729927
            ],
            [
              -0.4875008,
              51.472994
            ],
            [
              -0.4875026,
              51.473152
            ],
            [
              -0.4876156,
              51.4731507
            ],
            [
              -0.4876138,
              51.4729927
            ]
          ]
        ]
      },
      "properties": {
        "amenity": "toilets",
        "changing_table": "yes",
        "check_date": "2026-02-04",
        "fee": "no",
        "indoor": "room",
        "level": "2",
        "level_ref": "2",
        "wheelchair": "yes",
        "osm_id": 438299656,
        "osm_type": "way"
      }
    },
    {
      "type": "Feature",
      "geometry": {
        "type": "Polygon",
        "coordinates": [
          [
            [
              -0.487619,
              51.4700441
            ],
            [
              -0.487619,
              51.4702265
            ],
            [
              -0.4875142,
              51.4702265
            ],
            [
              -0.4875142,
              51.4700441
            ],
            [
              -0.487619,
              51.4700441
            ]
          ]
        ]
      },
      "properties": {
        "amenity": "toilets",
        "changing_table": "yes",
        "check_date": "2026-02-04",
        "drinking_water": "yes",
        "fee": "no",
        "indoor": "room",
        "level": "2",
        "level_ref": "2",
        "wheelchair": "yes",
        "osm_id": 438299658,
        "osm_type": "way"
      }
    },
    {
      "type": "Feature",
      "geometry": {
        "type": "Polygon",
        "coordinates": [
          [
            [
              -0.487103,
              51.4731601
            ],
            [
              -0.4871032,
              51.4730818
            ],
            [
              -0.4869085,
              51.4730817
            ],
            [
              -0.4869083,
              51.4731599
            ],
            [
              -0.487103,
              51.4731601
            ]
          ]
        ]
      },
      "properties": {
        "access": "yes",
        "indoor": "area",
        "leisure": "playground",
        "level": "2",
        "level_ref": "2",
        "osm_id": 438299659,
        "osm_type": "way"
      }
    },
    {
      "type": "Feature",
      "geometry": {
        "type": "Polygon",
        "coordinates": [
          [
            [
              -0.4887182,
              51.4700529
            ],
            [
              -0.4885988,
              51.470053
            ],
            [
              -0.4885989,
              51.4700955
            ],
            [
              -0.4887183,
              51.4700954
            ],
            [
              -0.4887182,
              51.4700529
            ]
          ]
        ]
      },
      "properties": {
        "amenity": "toilets",
        "changing_table": "yes",
        "check_date": "2026-02-04",
        "fee": "no",
        "indoor": "room",
        "level": "2",
        "level_ref": "2",
        "wheelchair": "yes",
        "osm_id": 438299660,
        "osm_type": "way"
      }
    },
    {
      "type": "Feature",
      "geometry": {
        "type": "Polygon",
        "coordinates": [
          [
            [
              -0.4880593,
              51.4722075
            ],
            [
              -0.4883719,
              51.4722106
            ],
            [
              -0.4883719,
              51.4722606
            ],
            [
              -0.4880593,
              51.4722576
            ],
            [
              -0.4880593,
              51.4722075
            ]
          ]
        ]
      },
      "properties": {
        "brand": "JD Sports",
        "brand:wikidata": "Q6108019",
        "check_date": "2025-11-17",
        "indoor": "room",
        "level": "2",
        "level_ref": "2",
        "name": "JD Sports",
        "payment:cash": "yes",
        "payment:credit_cards": "yes",
        "payment:debit_cards": "yes",
        "shop": "sports",
        "osm_id": 438299661,
        "osm_type": "way"
      }
    },
    {
      "type": "Feature",
      "geometry": {
        "type": "Polygon",
        "coordinates": [
          [
            [
              -0.488462,
              51.4727272
            ],
            [
              -0.4886843,
              51.4727259
            ],
            [
              -0.4886834,
              51.4726618
            ],
            [
              -0.488461,
              51.4726631
            ],
            [
              -0.488462,
              51.4727272
            ]
          ]
        ]
      },
      "properties": {
        "brand": "Boots",
        "brand:wikidata": "Q6123139",
        "check_date": "2025-05-10",
        "check_date:opening_hours": "2025-05-10",
        "indoor": "room",
        "level": "3",
        "name": "Boots",
        "opening_hours": "Mo-Su 05:30-22:00",
        "shop": "chemist",
        "wheelchair": "yes",
        "osm_id": 438299662,
        "osm_type": "way"
      }
    },
    {
      "type": "Feature",
      "geometry": {
        "type": "Polygon",
        "coordinates": [
          [
            [
              -0.4880592,
              51.4727825
            ],
            [
              -0.488372,
              51.4727823
            ],
            [
              -0.4883767,
              51.4729567
            ],
            [
              -0.4880639,
              51.4729596
            ],
            [
              -0.4880592,
              51.4727825
            ]
          ]
        ]
      },
      "properties": {
        "brand": "Boots",
        "brand:wikidata": "Q6123139",
        "check_date": "2025-11-17",
        "check_date:opening_hours": "2025-05-10",
        "contact:website": "https://www.boots.com/StoreLookupView?catalogId=28501&storeId=11352&langId=-1",
        "indoor": "room",
        "level": "2",
        "level_ref": "2",
        "name": "Boots",
        "opening_hours": "05:00-22:00",
        "payment:cash": "yes",
        "payment:credit_cards": "yes",
        "payment:debit_cards": "yes",
        "shop": "chemist",
        "wheelchair": "yes",
        "osm_id": 438299663,
        "osm_type": "way"
      }
    },
    {
      "type": "Feature",
      "geometry": {
        "type": "Polygon",
        "coordinates": [
          [
            [
              -0.4876208,
              51.4704347
            ],
            [
              -0.4876216,
              51.4705611
            ],
            [
              -0.487395,
              51.470562
            ],
            [
              -0.487394,
              51.4704356
            ],
            [
              -0.4876208,
              51.4704347
            ]
          ]
        ]
      },
      "properties": {
        "brand": "Bottega Veneta",
        "brand:wikidata": "Q894874",
        "check_date": "2026-02-04",
        "disused:shop": "fashion_accessories",
        "indoor": "room",
        "level": "2",
        "level_ref": "2",
        "name": "Bottega Veneta",
        "osm_id": 438299665,
        "osm_type": "way"
      }
    },
    {
      "type": "Feature",
      "geometry": {
        "type": "Polygon",
        "coordinates": [
          [
            [
              -0.4880922,
              51.4705467
            ],
            [
              -0.4884034,
              51.470549
            ],
            [
              -0.4884028,
              51.4706277
            ],
            [
              -0.4880914,
              51.4706254
            ],
            [
              -0.4880922,
              51.4705467
            ]
          ]
        ]
      },
      "properties": {
        "brand": "Burberry",
        "brand:wikidata": "Q390107",
        "brand:wikipedia": "en:Burberry",
        "check_date": "2026-02-04",
        "clothes": "men;women",
        "indoor": "room",
        "level": "2",
        "level_ref": "2",
        "name": "Burberry",
        "shop": "clothes",
        "osm_id": 438299666,
        "osm_type": "way"
      }
    },
    {
      "type": "Feature",
      "geometry": {
        "type": "Polygon",
        "coordinates": [
          [
            [
              -0.4888006,
              51.4730799
            ],
            [
              -0.4888925,
              51.4730797
            ],
            [
              -0.488982,
              51.4730795
            ],
            [
              -0.4889829,
              51.4732478
            ],
            [
              -0.4888014,
              51.4732482
            ],
            [
              -0.4888006,
              51.4730799
            ]
          ]
        ]
      },
      "properties": {
        "amenity": "cafe",
        "brand": "Caffè Nero",
        "brand:wikidata": "Q675808",
        "check_date": "2024-08-22",
        "check_date:opening_hours": "2024-08-22",
        "cuisine": "coffee_shop",
        "indoor": "room",
        "level": "3",
        "name": "Caffè Nero",
        "opening_hours": "Mo-Su 00:00-24:00",
        "takeaway": "yes",
        "website": "https://www.caffenero.com/uk/stores/heathrow-t5-landside",
        "osm_id": 438299667,
        "osm_type": "way"
      }
    },
    {
      "type": "Feature",
      "geometry": {
        "type": "Polygon",
        "coordinates": [
          [
            [
              -0.4885146,
              51.4722657
            ],
            [
              -0.4885159,
              51.4720354
            ],
            [
              -0.4887014,
              51.4720358
            ],
            [
              -0.4887,
              51.4722661
            ],
            [
              -0.4885146,
              51.4722657
            ]
          ]
        ]
      },
      "properties": {
        "amenity": "fast_food",
        "brand": "Pret A Manger",
        "brand:wikidata": "Q2109109",
        "cuisine": "sandwich",
        "indoor": "area",
        "level": "3",
        "name": "Pret A Manger",
        "short_name": "Pret",
        "takeaway": "yes",
        "osm_id": 438299668,
        "osm_type": "way"
      }
    },
    {
      "type": "Feature",
      "geometry": {
        "type": "Polygon",
        "coordinates": [
          [
            [
              -0.4880906,
              51.4707021
            ],
            [
              -0.4884022,
              51.4707043
            ],
            [
              -0.4884016,
              51.4707789
            ],
            [
              -0.4880898,
              51.4707766
            ],
            [
              -0.4880906,
              51.4707021
            ]
          ]
        ]
      },
      "properties": {
        "brand": "Cartier",
        "brand:wikidata": "Q538587",
        "brand:wikipedia": "en:Cartier (jeweler)",
        "check_date": "2026-02-04",
        "indoor": "room",
        "level": "2",
        "level_ref": "2",
        "name": "Cartier",
        "shop": "jewelry",
        "osm_id": 438299669,
        "osm_type": "way"
      }
    },
    {
      "type": "Feature",
      "geometry": {
        "type": "Polygon",
        "coordinates": [
          [
            [
              -0.4880587,
              51.4725504
            ],
            [
              -0.4883714,
              51.4725502
            ],
            [
              -0.4883716,
              51.4726082
            ],
            [
              -0.4880588,
              51.4726085
            ],
            [
              -0.4880587,
              51.4725504
            ]
          ]
        ]
      },
      "properties": {
        "brand": "InMotion",
        "brand:wikidata": "Q109648041",
        "check_date": "2025-11-17",
        "indoor": "room",
        "level": "2",
        "level_ref": "2",
        "name": "InMotion",
        "payment:cash": "yes",
        "payment:credit_cards": "yes",
        "payment:debit_cards": "yes",
        "shop": "electronics",
        "wheelchair": "yes",
        "osm_id": 438299670,
        "osm_type": "way"
      }
    },
    {
      "type": "Feature",
      "geometry": {
        "type": "Polygon",
        "coordinates": [
          [
            [
              -0.4870291,
              51.4712178
            ],
            [
              -0.4871544,
              51.4712184
            ],
            [
              -0.4872343,
              51.471173
            ],
            [
              -0.4873617,
              51.4711372
            ],
            [
              -0.4874871,
              51.4711226
            ],
            [
              -0.4875747,
              51.4711329
            ],
            [
              -0.4876337,
              51.4711627
            ],
            [
              -0.487681,
              51.4712282
            ],
            [
              -0.487686,
              51.471285
            ],
            [
              -0.4870247,
              51.471288
            ],
            [
              -0.4870291,
              51.4712178
            ]
          ]
        ]
      },
      "properties": {
        "check_date": "2026-02-04",
        "indoor": "room",
        "level": "2",
        "level_ref": "2",
        "name": "Channel",
        "shop": "cosmetics",
        "osm_id": 438299672,
        "osm_type": "way"
      }
    },
    {
      "type": "Feature",
      "geometry": {
        "type": "Polygon",
        "coordinates": [
          [
            [
              -0.4877599,
              51.4713113
            ],
            [
              -0.4877605,
              51.4714724
            ],
            [
              -0.4873007,
              51.471475
            ],
            [
              -0.4872996,
              51.4714018
            ],
            [
              -0.4873,
              51.4713139
            ],
            [
              -0.4877599,
              51.4713113
            ]
          ]
        ]
      },
      "properties": {
        "airside": "yes",
        "check_date": "2026-02-09",
        "indoor": "room",
        "level": "3",
        "name": "Collection",
        "shop": "clothes",
        "osm_id": 438299673,
        "osm_type": "way"
      }
    },
    {
      "type": "Feature",
      "geometry": {
        "type": "Polygon",
        "coordinates": [
          [
            [
              -0.4880873,
              51.4710149
            ],
            [
              -0.4883997,
              51.4710172
            ],
            [
              -0.4883991,
              51.4710938
            ],
            [
              -0.4880866,
              51.4710915
            ],
            [
              -0.4880873,
              51.4710149
            ]
          ]
        ]
      },
      "properties": {
        "brand": "Dior",
        "brand:wikidata": "Q542767",
        "brand:wikipedia": "en:Christian Dior (fashion house)",
        "check_date": "2026-02-04",
        "disused:shop": "clothes",
        "indoor": "room",
        "level": "2",
        "level_ref": "2",
        "name": "Dior",
        "osm_id": 438299674,
        "osm_type": "way"
      }
    },
    {
      "type": "Feature",
      "geometry": {
        "type": "Polygon",
        "coordinates": [
          [
            [
              -0.488371,
              51.4722188
            ],
            [
              -0.4883709,
              51.4721147
            ],
            [
              -0.4880585,
              51.4721118
            ],
            [
              -0.4880583,
              51.4722165
            ],
            [
              -0.488371,
              51.4722188
            ]
          ]
        ]
      },
      "properties": {
        "brand": "Accessorize",
        "brand:wikidata": "Q65007482",
        "indoor": "room",
        "level": "3",
        "name": "Accessorize",
        "shop": "fashion_accessories",
        "osm_id": 438299675,
        "osm_type": "way"
      }
    },
    {
      "type": "Feature",
      "geometry": {
        "type": "Polygon",
        "coordinates": [
          [
            [
              -0.4883735,
              51.4718696
            ],
            [
              -0.4883754,
              51.4717816
            ],
            [
              -0.4883776,
              51.4716462
            ],
            [
              -0.4883783,
              51.471506
            ],
            [
              -0.4881138,
              51.4715061
            ],
            [
              -0.4881297,
              51.4715839
            ],
            [
              -0.4881313,
              51.471665
            ],
            [
              -0.488116,
              51.4717476
            ],
            [
              -0.4880888,
              51.4718183
            ],
            [
              -0.4880541,
              51.4718699
            ],
            [
              -0.4883735,
              51.4718696
            ]
          ]
        ]
      },
      "properties": {
        "brand": "InMotion",
        "brand:wikidata": "Q109648041",
        "indoor": "room",
        "level": "3",
        "name": "InMotion",
        "shop": "electronics",
        "osm_id": 438299676,
        "osm_type": "way"
      }
    },
    {
      "type": "Feature",
      "geometry": {
        "type": "Polygon",
        "coordinates": [
          [
            [
              -0.4886787,
              51.4710582
            ],
            [
              -0.4886784,
              51.4711447
            ],
            [
              -0.4884026,
              51.4711443
            ],
            [
              -0.4884029,
              51.4710577
            ],
            [
              -0.4886787,
              51.4710582
            ]
          ]
        ]
      },
      "properties": {
        "check_date": "2023-10-27",
        "indoor": "room",
        "level": "3",
        "name": "Excess Baggage Company",
        "shop": "bag",
        "osm_id": 438299678,
        "osm_type": "way"
      }
    },
    {
      "type": "Feature",
      "geometry": {
        "type": "Polygon",
        "coordinates": [
          [
            [
              -0.4886834,
              51.4726618
            ],
            [
              -0.4886824,
              51.4725977
            ],
            [
              -0.4884601,
              51.472599
            ],
            [
              -0.488461,
              51.4726631
            ],
            [
              -0.4886834,
              51.4726618
            ]
          ]
        ]
      },
      "properties": {
        "addr:street": "Wallis Road",
        "check_date": "2023-09-29",
        "indoor": "room",
        "level": "3",
        "name": "Excess Baggage Company",
        "shop": "bag",
        "wheelchair": "yes",
        "osm_id": 438299679,
        "osm_type": "way"
      }
    },
    {
      "type": "Feature",
      "geometry": {
        "type": "Polygon",
        "coordinates": [
          [
            [
              -0.487619,
              51.4702265
            ],
            [
              -0.4875142,
              51.4702265
            ],
            [
              -0.4873878,
              51.4702265
            ],
            [
              -0.487391,
              51.4703342
            ],
            [
              -0.4876199,
              51.4703363
            ],
            [
              -0.487619,
              51.4702265
            ]
          ]
        ]
      },
      "properties": {
        "amenity": "deli",
        "check_date": "2026-02-04",
        "indoor": "room",
        "level": "2",
        "level_ref": "2",
        "name": "Fortnum & Mason",
        "shop": "gift",
        "osm_id": 438299681,
        "osm_type": "way"
      }
    },
    {
      "type": "Feature",
      "geometry": {
        "type": "Polygon",
        "coordinates": [
          [
            [
              -0.4873156,
              51.4727056
            ],
            [
              -0.487319,
              51.472842
            ],
            [
              -0.4876262,
              51.4728393
            ],
            [
              -0.4876231,
              51.472703
            ],
            [
              -0.4873156,
              51.4727056
            ]
          ]
        ]
      },
      "properties": {
        "check_date": "2026-02-09",
        "indoor": "room",
        "level": "3",
        "name": "Glorious Britain",
        "shop": "gift",
        "wheelchair": "yes",
        "osm_id": 438299683,
        "osm_type": "way"
      }
    },
    {
      "type": "Feature",
      "geometry": {
        "type": "Polygon",
        "coordinates": [
          [
            [
              -0.4880914,
              51.4706254
            ],
            [
              -0.4884028,
              51.4706277
            ],
            [
              -0.4884023,
              51.4706844
            ],
            [
              -0.4884022,
              51.4707043
            ],
            [
              -0.4880906,
              51.4707021
            ],
            [
              -0.4880914,
              51.4706254
            ]
          ]
        ]
      },
      "properties": {
        "brand": "Gucci",
        "brand:wikidata": "Q178516",
        "brand:wikipedia": "en:Gucci",
        "check_date": "2026-02-04",
        "indoor": "room",
        "level": "2",
        "level_ref": "2",
        "name": "Gucci",
        "shop": "clothes",
        "osm_id": 438299685,
        "osm_type": "way"
      }
    },
    {
      "type": "Feature",
      "geometry": {
        "type": "Polygon",
        "coordinates": [
          [
            [
              -0.4873122,
              51.4725589
            ],
            [
              -0.4876197,
              51.4725562
            ],
            [
              -0.4876231,
              51.472703
            ],
            [
              -0.4873156,
              51.4727056
            ],
            [
              -0.4873122,
              51.4725589
            ]
          ]
        ]
      },
      "properties": {
        "check_date": "2023-10-27",
        "indoor": "room",
        "level": "3",
        "name": "The Harry Potter Shop",
        "shop": "toys",
        "wheelchair": "yes",
        "osm_id": 438299686,
        "osm_type": "way"
      }
    },
    {
      "type": "Feature",
      "geometry": {
        "type": "Polygon",
        "coordinates": [
          [
            [
              -0.4880838,
              51.4713704
            ],
            [
              -0.4883771,
              51.47137
            ],
            [
              -0.4883773,
              51.4714479
            ],
            [
              -0.488084,
              51.4714482
            ],
            [
              -0.4880839,
              51.4713982
            ],
            [
              -0.4880838,
              51.4713704
            ]
          ]
        ]
      },
      "properties": {
        "amenity": "bureau_de_change",
        "brand": "Travelex",
        "brand:wikidata": "Q2337964",
        "brand:wikipedia": "en:Travelex",
        "indoor": "room",
        "level": "3",
        "name": "Travelex",
        "osm_id": 438299687,
        "osm_type": "way"
      }
    },
    {
      "type": "Feature",
      "geometry": {
        "type": "Polygon",
        "coordinates": [
          [
            [
              -0.4877605,
              51.4714724
            ],
            [
              -0.4877678,
              51.4719735
            ],
            [
              -0.4873079,
              51.4719761
            ],
            [
              -0.4873056,
              51.4718002
            ],
            [
              -0.4873007,
              51.471475
            ],
            [
              -0.4877605,
              51.4714724
            ]
          ]
        ]
      },
      "properties": {
        "airside": "yes",
        "check_date": "2026-02-09",
        "indoor": "room",
        "level": "3",
        "name": "Harrods",
        "shop": "gift",
        "osm_id": 438299688,
        "osm_type": "way"
      }
    },
    {
      "type": "Feature",
      "geometry": {
        "type": "Polygon",
        "coordinates": [
          [
            [
              -0.488089,
              51.470855
            ],
            [
              -0.488401,
              51.4708556
            ],
            [
              -0.4884004,
              51.4709313
            ],
            [
              -0.4880882,
              51.470929
            ],
            [
              -0.488089,
              51.470855
            ]
          ]
        ]
      },
      "properties": {
        "brand": "Hermès",
        "brand:wikidata": "Q843887",
        "check_date": "2026-02-04",
        "disused:shop": "clothes",
        "indoor": "room",
        "level": "2",
        "level_ref": "2",
        "name": "Hermès",
        "osm_id": 438299689,
        "osm_type": "way"
      }
    },
    {
      "type": "Feature",
      "geometry": {
        "type": "Polygon",
        "coordinates": [
          [
            [
              -0.4880592,
              51.4723078
            ],
            [
              -0.4883719,
              51.4723106
            ],
            [
              -0.4883718,
              51.4723605
            ],
            [
              -0.4880592,
              51.4723579
            ],
            [
              -0.4880592,
              51.4723078
            ]
          ]
        ]
      },
      "properties": {
        "brand": "Paul Smith",
        "brand:wikidata": "Q56356277",
        "check_date": "2025-11-17",
        "indoor": "room",
        "level": "2",
        "level_ref": "2",
        "name": "Paul Smith",
        "payment:cash": "yes",
        "payment:credit_cards": "yes",
        "payment:debit_cards": "yes",
        "shop": "clothes",
        "wheelchair": "yes",
        "osm_id": 438299692,
        "osm_type": "way"
      }
    },
    {
      "type": "Feature",
      "geometry": {
        "type": "Polygon",
        "coordinates": [
          [
            [
              -0.4876216,
              51.4705611
            ],
            [
              -0.4875983,
              51.4706933
            ],
            [
              -0.487548,
              51.4707392
            ],
            [
              -0.4874856,
              51.4707578
            ],
            [
              -0.4874157,
              51.4707454
            ],
            [
              -0.4873931,
              51.4707002
            ],
            [
              -0.487395,
              51.470562
            ],
            [
              -0.4876216,
              51.4705611
            ]
          ]
        ]
      },
      "properties": {
        "brand": "Louis Vuitton",
        "brand:wikidata": "Q191485",
        "brand:wikipedia": "en:Louis Vuitton",
        "check_date": "2026-02-04",
        "indoor": "room",
        "level": "2",
        "level_ref": "2",
        "name": "Louis Vuitton",
        "shop": "clothes",
        "osm_id": 438299693,
        "osm_type": "way"
      }
    },
    {
      "type": "Feature",
      "geometry": {
        "type": "Polygon",
        "coordinates": [
          [
            [
              -0.4880588,
              51.4726085
            ],
            [
              -0.4883716,
              51.4726082
            ],
            [
              -0.4883717,
              51.4726662
            ],
            [
              -0.488059,
              51.4726665
            ],
            [
              -0.4880588,
              51.4726085
            ]
          ]
        ]
      },
      "properties": {
        "brand": "Rituals",
        "brand:wikidata": "Q62874140",
        "check_date": "2025-11-17",
        "indoor": "room",
        "level": "2",
        "level_ref": "2",
        "name": "Rituals",
        "opening_hours": "Mo-Su 05:30-22:00",
        "payment:cash": "yes",
        "payment:credit_cards": "yes",
        "payment:debit_cards": "yes",
        "shop": "cosmetics",
        "wheelchair": "yes",
        "osm_id": 438299694,
        "osm_type": "way"
      }
    },
    {
      "type": "Feature",
      "geometry": {
        "type": "Polygon",
        "coordinates": [
          [
            [
              -0.4880591,
              51.4724081
            ],
            [
              -0.4883718,
              51.4724105
            ],
            [
              -0.4883718,
              51.4724605
            ],
            [
              -0.4880591,
              51.4724582
            ],
            [
              -0.4880591,
              51.4724081
            ]
          ]
        ]
      },
      "properties": {
        "brand": "Hugo Boss",
        "brand:wikidata": "Q491627",
        "check_date": "2025-11-17",
        "indoor": "room",
        "level": "2",
        "level_ref": "2",
        "name": "Hugo Boss",
        "payment:cash": "yes",
        "payment:credit_cards": "yes",
        "payment:debit_cards": "yes",
        "shop": "clothes",
        "short_name": "Boss",
        "wheelchair": "yes",
        "osm_id": 438299695,
        "osm_type": "way"
      }
    },
    {
      "type": "Feature",
      "geometry": {
        "type": "Polygon",
        "coordinates": [
          [
            [
              -0.4880941,
              51.470355
            ],
            [
              -0.4884049,
              51.4703573
            ],
            [
              -0.4884045,
              51.4704076
            ],
            [
              -0.4884041,
              51.4704568
            ],
            [
              -0.4880931,
              51.4704566
            ],
            [
              -0.4880941,
              51.470355
            ]
          ]
        ]
      },
      "properties": {
        "check_date": "2026-02-04",
        "indoor": "room",
        "level": "2",
        "level_ref": "2",
        "name": "Watches of Switzerland",
        "shop": "watches",
        "osm_id": 438299696,
        "osm_type": "way"
      }
    },
    {
      "type": "Feature",
      "geometry": {
        "type": "Polygon",
        "coordinates": [
          [
            [
              -0.4880882,
              51.470929
            ],
            [
              -0.4884004,
              51.4709313
            ],
            [
              -0.4883997,
              51.4710172
            ],
            [
              -0.4880873,
              51.4710149
            ],
            [
              -0.4880882,
              51.470929
            ]
          ]
        ]
      },
      "properties": {
        "brand": "Prada",
        "brand:wikidata": "Q193136",
        "brand:wikipedia": "en:Prada",
        "check_date": "2026-02-04",
        "disused:shop": "clothes",
        "indoor": "room",
        "level": "2",
        "level_ref": "2",
        "name": "Prada",
        "osm_id": 438299698,
        "osm_type": "way"
      }
    },
    {
      "type": "Feature",
      "geometry": {
        "type": "Polygon",
        "coordinates": [
          [
            [
              -0.4876107,
              51.4724594
            ],
            [
              -0.4876107,
              51.4723866
            ],
            [
              -0.4873192,
              51.4723866
            ],
            [
              -0.4873192,
              51.4724594
            ],
            [
              -0.4876107,
              51.4724594
            ]
          ]
        ]
      },
      "properties": {
        "addr:floor": "2",
        "addr:housename": "Terminal 5 Departures Level 1 (airside)",
        "addr:locality": "London Heathrow Airport",
        "addr:postcode": "TW6 2GA",
        "addr:street": "Wellington Road",
        "amenity": "fast_food",
        "brand": "Pret A Manger",
        "brand:wikidata": "Q2109109",
        "brand:wikipedia": "en:Pret a Manger",
        "check_date": "2025-11-17",
        "cuisine": "sandwich",
        "diet:vegan": "yes",
        "diet:vegetarian": "yes",
        "fhrs:id": "519395",
        "indoor": "area",
        "indoor_seating": "yes",
        "level": "2",
        "level_ref": "2",
        "name": "Pret A Manger",
        "outdoor_seating": "no",
        "payment:cash": "yes",
        "payment:credit_cards": "yes",
        "payment:debit_cards": "yes",
        "short_name": "Pret",
        "smoking": "no",
        "source:addr": "FHRS Open Data",
        "takeaway": "yes",
        "wheelchair": "yes",
        "osm_id": 438299699,
        "osm_type": "way"
      }
    },
    {
      "type": "Feature",
      "geometry": {
        "type": "Polygon",
        "coordinates": [
          [
            [
              -0.4880931,
              51.4704566
            ],
            [
              -0.4884041,
              51.4704568
            ],
            [
              -0.4884039,
              51.4704748
            ],
            [
              -0.4884034,
              51.470549
            ],
            [
              -0.4880922,
              51.4705467
            ],
            [
              -0.4880931,
              51.4704566
            ]
          ]
        ]
      },
      "properties": {
        "brand": "Rolex",
        "brand:wikidata": "Q62288",
        "check_date": "2026-02-04",
        "indoor": "room",
        "level": "2",
        "level_ref": "2",
        "name": "Rolex",
        "shop": "watches",
        "osm_id": 438299701,
        "osm_type": "way"
      }
    },
    {
      "type": "Feature",
      "geometry": {
        "type": "Polygon",
        "coordinates": [
          [
            [
              -0.4880591,
              51.4727245
            ],
            [
              -0.4883718,
              51.4727242
            ],
            [
              -0.488372,
              51.4727823
            ],
            [
              -0.4880592,
              51.4727825
            ],
            [
              -0.4880591,
              51.4727245
            ]
          ]
        ]
      },
      "properties": {
        "check_date": "2025-11-17",
        "indoor": "room",
        "level": "2",
        "level_ref": "2",
        "name": "Case",
        "payment:cash": "yes",
        "payment:credit_cards": "yes",
        "payment:debit_cards": "yes",
        "shop": "bag",
        "wheelchair": "yes",
        "osm_id": 438299702,
        "osm_type": "way"
      }
    },
    {
      "type": "Feature",
      "geometry": {
        "type": "Polygon",
        "coordinates": [
          [
            [
              -0.488648,
              51.4705126
            ],
            [
              -0.4886462,
              51.4705846
            ],
            [
              -0.4884065,
              51.4705823
            ],
            [
              -0.4884083,
              51.4705103
            ],
            [
              -0.488648,
              51.4705126
            ]
          ]
        ]
      },
      "properties": {
        "indoor": "room",
        "level": "3",
        "name": "Case",
        "shop": "bag",
        "osm_id": 438299703,
        "osm_type": "way"
      }
    },
    {
      "type": "Feature",
      "geometry": {
        "type": "Polygon",
        "coordinates": [
          [
            [
              -0.4876199,
              51.4703363
            ],
            [
              -0.4876208,
              51.4704347
            ],
            [
              -0.487394,
              51.4704356
            ],
            [
              -0.487391,
              51.4703342
            ],
            [
              -0.4876199,
              51.4703363
            ]
          ]
        ]
      },
      "properties": {
        "alcohol": "whisky",
        "check_date": "2026-02-04",
        "indoor": "room",
        "level": "2",
        "level_ref": "2",
        "name": "The Macallan",
        "shop": "alcohol",
        "osm_id": 438299704,
        "osm_type": "way"
      }
    },
    {
      "type": "Feature",
      "geometry": {
        "type": "Polygon",
        "coordinates": [
          [
            [
              -0.4870785,
              51.472174
            ],
            [
              -0.4870776,
              51.4722582
            ],
            [
              -0.4875867,
              51.4722604
            ],
            [
              -0.4875871,
              51.4722209
            ],
            [
              -0.4875876,
              51.4721761
            ],
            [
              -0.4870785,
              51.472174
            ]
          ]
        ]
      },
      "properties": {
        "addr:floor": "2",
        "addr:housename": "Terminal 5 Departures Level 1 (airside)",
        "addr:street": "Wellington Road",
        "amenity": "cafe",
        "brand": "Starbucks",
        "brand:wikidata": "Q37158",
        "brand:wikipedia": "en:Starbucks",
        "check_date": "2025-11-17",
        "cuisine": "coffee_shop",
        "diet:vegan": "yes",
        "diet:vegetarian": "yes",
        "indoor": "area",
        "indoor_seating": "yes",
        "level": "2",
        "level_ref": "2",
        "name": "Starbucks",
        "official_name": "Starbucks Coffee",
        "outdoor_seating": "no",
        "payment:cash": "yes",
        "payment:credit_cards": "yes",
        "payment:debit_cards": "yes",
        "takeaway": "yes",
        "website": "https://www.starbucks.com/store-locator/store/1011849/heathrow-sspemea-lhr-t-5-airs-terminal-5-airside-hounslow-eng-tw-6-2-ga-gb",
        "osm_id": 438299705,
        "osm_type": "way"
      }
    },
    {
      "type": "Feature",
      "geometry": {
        "type": "Polygon",
        "coordinates": [
          [
            [
              -0.4880586,
              51.4724924
            ],
            [
              -0.4883713,
              51.4724921
            ],
            [
              -0.4883714,
              51.4725502
            ],
            [
              -0.4880587,
              51.4725504
            ],
            [
              -0.4880586,
              51.4724924
            ]
          ]
        ]
      },
      "properties": {
        "brand": "Sunglass Hut",
        "brand:wikidata": "Q136311",
        "brand:wikipedia": "en:Sunglass Hut",
        "check_date": "2025-11-17",
        "indoor": "room",
        "level": "2",
        "level_ref": "2",
        "name": "Sunglass Hut",
        "payment:cash": "yes",
        "payment:credit_cards": "yes",
        "payment:debit_cards": "yes",
        "shop": "optician",
        "wheelchair": "yes",
        "osm_id": 438299707,
        "osm_type": "way"
      }
    },
    {
      "type": "Feature",
      "geometry": {
        "type": "Polygon",
        "coordinates": [
          [
            [
              -0.488648,
              51.4705126
            ],
            [
              -0.488407,
              51.4705103
            ],
            [
              -0.4884086,
              51.4704458
            ],
            [
              -0.4886496,
              51.4704482
            ],
            [
              -0.488648,
              51.4705126
            ]
          ]
        ]
      },
      "properties": {
        "disused:shop": "yes",
        "indoor": "room",
        "level": "3",
        "osm_id": 438299708,
        "osm_type": "way"
      }
    },
    {
      "type": "Feature",
      "geometry": {
        "type": "Polygon",
        "coordinates": [
          [
            [
              -0.4880592,
              51.4723579
            ],
            [
              -0.4883718,
              51.4723605
            ],
            [
              -0.4883718,
              51.4724105
            ],
            [
              -0.4880591,
              51.4724081
            ],
            [
              -0.4880592,
              51.4723579
            ]
          ]
        ]
      },
      "properties": {
        "brand": "Lululemon",
        "brand:wikidata": "Q6702957",
        "check_date": "2025-11-17",
        "clothes": "men;women",
        "indoor": "room",
        "level": "2",
        "level_ref": "2",
        "name": "Lululemon",
        "official_name": "Lululemon Athletica",
        "payment:cash": "yes",
        "payment:credit_cards": "yes",
        "payment:debit_cards": "yes",
        "shop": "clothes",
        "wheelchair": "yes",
        "osm_id": 438299709,
        "osm_type": "way"
      }
    },
    {
      "type": "Feature",
      "geometry": {
        "type": "Polygon",
        "coordinates": [
          [
            [
              -0.4876138,
              51.4729927
            ],
            [
              -0.487612,
              51.4729428
            ],
            [
              -0.4874989,
              51.4729443
            ],
            [
              -0.4875008,
              51.472994
            ],
            [
              -0.4876138,
              51.4729927
            ]
          ]
        ]
      },
      "properties": {
        "brand": "WHSmith",
        "brand:wikidata": "Q1548712",
        "check_date": "2025-11-17",
        "indoor": "room",
        "level": "2",
        "level_ref": "2",
        "name": "WHSmith",
        "operator": "W. H. Smith",
        "shop": "books",
        "wheelchair": "yes",
        "osm_id": 438299711,
        "osm_type": "way"
      }
    },
    {
      "type": "Feature",
      "geometry": {
        "type": "Polygon",
        "coordinates": [
          [
            [
              -0.4877148,
              51.4730042
            ],
            [
              -0.4879761,
              51.4730018
            ],
            [
              -0.4879156,
              51.4731488
            ],
            [
              -0.4877188,
              51.4731494
            ],
            [
              -0.4877148,
              51.4730042
            ]
          ]
        ]
      },
      "properties": {
        "amenity": "pub",
        "brand": "Wetherspoon",
        "brand:wikidata": "Q6109362",
        "check_date": "2026-02-04",
        "diet:vegan": "yes",
        "diet:vegetarian": "yes",
        "dog": "no",
        "fhrs:id": "519358",
        "food": "yes",
        "indoor": "area",
        "indoor_seating": "yes",
        "level": "2",
        "level_ref": "2",
        "name": "The Crown Rivers",
        "outdoor_seating": "no",
        "smoking": "no",
        "website": "https://www.jdwetherspoon.com/pubs/all-pubs/england/middlesex/the-crown-rivers-after-security-terminal-5",
        "website:menu": "https://order.jdwetherspoon.com/venue/jdw/5509/menus",
        "wheelchair": "yes",
        "wikidata": "Q88916761",
        "osm_id": 438299712,
        "osm_type": "way"
      }
    },
    {
      "type": "Feature",
      "geometry": {
        "type": "Polygon",
        "coordinates": [
          [
            [
              -0.488059,
              51.4726665
            ],
            [
              -0.4883717,
              51.4726662
            ],
            [
              -0.4883718,
              51.4727242
            ],
            [
              -0.4880591,
              51.4727245
            ],
            [
              -0.488059,
              51.4726665
            ]
          ]
        ]
      },
      "properties": {
        "check_date": "2025-11-17",
        "indoor": "room",
        "level": "2",
        "level_ref": "2",
        "name": "Orlebar Brown",
        "payment:cash": "yes",
        "payment:credit_cards": "yes",
        "payment:debit_cards": "yes",
        "shop": "clothes",
        "wheelchair": "yes",
        "osm_id": 438299713,
        "osm_type": "way"
      }
    },
    {
      "type": "Feature",
      "geometry": {
        "type": "Polygon",
        "coordinates": [
          [
            [
              -0.4880898,
              51.4707766
            ],
            [
              -0.4884016,
              51.4707789
            ],
            [
              -0.4884013,
              51.470812
            ],
            [
              -0.488401,
              51.4708556
            ],
            [
              -0.488089,
              51.470855
            ],
            [
              -0.4880898,
              51.4707766
            ]
          ]
        ]
      },
      "properties": {
        "brand": "Tiffany & Company",
        "brand:wikidata": "Q1066858",
        "check_date": "2026-02-04",
        "indoor": "room",
        "level": "2",
        "level_ref": "2",
        "name": "Tiffany & Company",
        "official_name": "Tiffany & Co.",
        "shop": "jewelry",
        "osm_id": 438299714,
        "osm_type": "way"
      }
    },
    {
      "type": "Feature",
      "geometry": {
        "type": "Polygon",
        "coordinates": [
          [
            [
              -0.4876609,
              51.4722212
            ],
            [
              -0.4876614,
              51.4721765
            ],
            [
              -0.4875876,
              51.4721761
            ],
            [
              -0.4875871,
              51.4722209
            ],
            [
              -0.4876609,
              51.4722212
            ]
          ]
        ]
      },
      "properties": {
        "amenity": "bureau_de_change",
        "indoor": "room",
        "level": "2",
        "level_ref": "2",
        "name": "Travelex",
        "osm_id": 438299715,
        "osm_type": "way"
      }
    },
    {
      "type": "Feature",
      "geometry": {
        "type": "Polygon",
        "coordinates": [
          [
            [
              -0.4886784,
              51.4725388
            ],
            [
              -0.4886774,
              51.4724453
            ],
            [
              -0.4885363,
              51.4724459
            ],
            [
              -0.4885374,
              51.4725394
            ],
            [
              -0.4886784,
              51.4725388
            ]
          ]
        ]
      },
      "properties": {
        "amenity": "bureau_de_change",
        "brand": "Travelex",
        "brand:wikidata": "Q2337964",
        "brand:wikipedia": "en:Travelex",
        "check_date": "2023-04-08",
        "indoor": "room",
        "level": "3",
        "name": "Travelex",
        "wheelchair": "yes",
        "osm_id": 438299716,
        "osm_type": "way"
      }
    },
    {
      "type": "Feature",
      "geometry": {
        "type": "Polygon",
        "coordinates": [
          [
            [
              -0.4876713,
              51.473009
            ],
            [
              -0.4879406,
              51.4730092
            ],
            [
              -0.4879402,
              51.4731667
            ],
            [
              -0.4876709,
              51.4731664
            ],
            [
              -0.4876713,
              51.473009
            ]
          ]
        ]
      },
      "properties": {
        "amenity": "bureau_de_change",
        "check_date": "2023-09-29",
        "indoor": "room",
        "level": "3",
        "name": "Travelex",
        "wheelchair": "yes",
        "osm_id": 438299717,
        "osm_type": "way"
      }
    },
    {
      "type": "Feature",
      "geometry": {
        "type": "Polygon",
        "coordinates": [
          [
            [
              -0.4887019,
              51.4719416
            ],
            [
              -0.4887023,
              51.4718706
            ],
            [
              -0.4885169,
              51.4718701
            ],
            [
              -0.4885165,
              51.4719412
            ],
            [
              -0.4887019,
              51.4719416
            ]
          ]
        ]
      },
      "properties": {
        "amenity": "bureau_de_change",
        "brand": "Travelex",
        "brand:wikidata": "Q2337964",
        "brand:wikipedia": "en:Travelex",
        "check_date": "2023-09-29",
        "indoor": "room",
        "level": "3",
        "name": "Travelex",
        "osm_id": 438299718,
        "osm_type": "way"
      }
    },
    {
      "type": "Feature",
      "geometry": {
        "type": "Polygon",
        "coordinates": [
          [
            [
              -0.4877391,
              51.4709272
            ],
            [
              -0.4877412,
              51.4708599
            ],
            [
              -0.4876554,
              51.4708589
            ],
            [
              -0.4876534,
              51.4709262
            ],
            [
              -0.4877391,
              51.4709272
            ]
          ]
        ]
      },
      "properties": {
        "amenity": "bureau_de_change",
        "check_date": "2026-02-04",
        "indoor": "room",
        "level": "2",
        "level_ref": "2",
        "osm_id": 438299719,
        "osm_type": "way"
      }
    },
    {
      "type": "Feature",
      "geometry": {
        "type": "Polygon",
        "coordinates": [
          [
            [
              -0.4886832,
              51.4706423
            ],
            [
              -0.4886828,
              51.4707109
            ],
            [
              -0.4885306,
              51.4707106
            ],
            [
              -0.488531,
              51.470642
            ],
            [
              -0.4886832,
              51.4706423
            ]
          ]
        ]
      },
      "properties": {
        "amenity": "bureau_de_change",
        "brand": "Travelex",
        "brand:wikidata": "Q2337964",
        "check_date": "2023-04-08",
        "indoor": "room",
        "level": "3",
        "name": "Travelex",
        "osm_id": 438299720,
        "osm_type": "way"
      }
    },
    {
      "type": "Feature",
      "geometry": {
        "type": "Polygon",
        "coordinates": [
          [
            [
              -0.4880626,
              51.4720849
            ],
            [
              -0.4880619,
              51.4721043
            ],
            [
              -0.4880593,
              51.4722075
            ],
            [
              -0.4883719,
              51.4722106
            ],
            [
              -0.4883719,
              51.472087
            ],
            [
              -0.4880626,
              51.4720849
            ]
          ]
        ]
      },
      "properties": {
        "check_date": "2026-02-04",
        "indoor": "room",
        "level": "2",
        "level_ref": "2",
        "name": "Duty Free Cigarettes",
        "shop": "tobacco",
        "osm_id": 438299721,
        "osm_type": "way"
      }
    },
    {
      "type": "Feature",
      "geometry": {
        "type": "Polygon",
        "coordinates": [
          [
            [
              -0.487966,
              51.4726293
            ],
            [
              -0.4877906,
              51.4726291
            ],
            [
              -0.4877587,
              51.4726291
            ],
            [
              -0.4877588,
              51.4725824
            ],
            [
              -0.4879661,
              51.4725826
            ],
            [
              -0.487966,
              51.4726293
            ]
          ]
        ]
      },
      "properties": {
        "amenity": "bureau_de_change",
        "indoor": "room",
        "level": "2",
        "level_ref": "2",
        "name": "Travelex",
        "osm_id": 438299723,
        "osm_type": "way"
      }
    },
    {
      "type": "Feature",
      "geometry": {
        "type": "Polygon",
        "coordinates": [
          [
            [
              -0.4879661,
              51.4725826
            ],
            [
              -0.4879663,
              51.4725298
            ],
            [
              -0.487759,
              51.4725295
            ],
            [
              -0.4877588,
              51.4725824
            ],
            [
              -0.4879661,
              51.4725826
            ]
          ]
        ]
      },
      "properties": {
        "brand": "Prada",
        "brand:wikidata": "Q193136",
        "check_date": "2025-11-17",
        "indoor": "room",
        "level": "2",
        "level_ref": "2",
        "name": "Prada",
        "shop": "clothes",
        "osm_id": 438299724,
        "osm_type": "way"
      }
    },
    {
      "type": "Feature",
      "geometry": {
        "type": "Polygon",
        "coordinates": [
          [
            [
              -0.4886791,
              51.4709725
            ],
            [
              -0.4886787,
              51.4710582
            ],
            [
              -0.4884036,
              51.4710577
            ],
            [
              -0.4884039,
              51.4709721
            ],
            [
              -0.4886791,
              51.4709725
            ]
          ]
        ]
      },
      "properties": {
        "amenity": "vat_refund",
        "indoor": "room",
        "level": "3",
        "name": "VAT Refunds",
        "osm_id": 438299725,
        "osm_type": "way"
      }
    },
    {
      "type": "Feature",
      "geometry": {
        "type": "Polygon",
        "coordinates": [
          [
            [
              -0.4876262,
              51.4728393
            ],
            [
              -0.4876716,
              51.4727014
            ],
            [
              -0.4873156,
              51.4727056
            ],
            [
              -0.487319,
              51.472842
            ],
            [
              -0.4876262,
              51.4728393
            ]
          ]
        ]
      },
      "properties": {
        "brand": "WHSmith",
        "brand:website": "https://www.whsmithplc.co.uk/",
        "brand:wikidata": "Q1548712",
        "check_date": "2026-06-18",
        "check_date:opening_hours": "2026-06-18",
        "indoor": "room",
        "level": "2",
        "level_ref": "2",
        "name": "WHSmith",
        "opening_hours": "Mo-Su 05:00-22:00",
        "shop": "newsagent",
        "wheelchair": "yes",
        "osm_id": 438299726,
        "osm_type": "way"
      }
    },
    {
      "type": "Feature",
      "geometry": {
        "type": "Polygon",
        "coordinates": [
          [
            [
              -0.4887014,
              51.4720358
            ],
            [
              -0.4887019,
              51.4719416
            ],
            [
              -0.4885165,
              51.4719412
            ],
            [
              -0.4885159,
              51.4720354
            ],
            [
              -0.4887014,
              51.4720358
            ]
          ]
        ]
      },
      "properties": {
        "brand": "WHSmith",
        "brand:website": "https://www.whsmithplc.co.uk/",
        "brand:wikidata": "Q1548712",
        "brand:wikipedia": "en:WHSmith",
        "check_date": "2024-09-29",
        "indoor": "room",
        "level": "3",
        "name": "WHSmith",
        "shop": "newsagent",
        "osm_id": 438299727,
        "osm_type": "way"
      }
    },
    {
      "type": "Feature",
      "geometry": {
        "type": "Polygon",
        "coordinates": [
          [
            [
              -0.488409,
              51.4703561
            ],
            [
              -0.4886518,
              51.4703584
            ],
            [
              -0.4886496,
              51.4704482
            ],
            [
              -0.4884086,
              51.4704458
            ],
            [
              -0.488409,
              51.4703561
            ]
          ]
        ]
      },
      "properties": {
        "brand": "WHSmith",
        "brand:website": "https://www.whsmithplc.co.uk/",
        "brand:wikidata": "Q1548712",
        "brand:wikipedia": "en:WHSmith",
        "check_date": "2023-04-08",
        "indoor": "room",
        "level": "3",
        "name": "WHSmith",
        "shop": "newsagent",
        "osm_id": 438299729,
        "osm_type": "way"
      }
    },
    {
      "type": "Feature",
      "geometry": {
        "type": "Polygon",
        "coordinates": [
          [
            [
              -0.4880541,
              51.4718699
            ],
            [
              -0.4880551,
              51.471955
            ],
            [
              -0.4880566,
              51.4720341
            ],
            [
              -0.4880626,
              51.4720849
            ],
            [
              -0.4883719,
              51.472087
            ],
            [
              -0.4883734,
              51.4719465
            ],
            [
              -0.4883735,
              51.4718696
            ],
            [
              -0.4880541,
              51.4718699
            ]
          ]
        ]
      },
      "properties": {
        "brand": "WHSmith",
        "brand:website": "https://www.whsmithplc.co.uk/",
        "brand:wikidata": "Q1548712",
        "brand:wikipedia": "en:WHSmith",
        "indoor": "room",
        "level": "3",
        "name": "WHSmith",
        "shop": "newsagent",
        "osm_id": 438299730,
        "osm_type": "way"
      }
    },
    {
      "type": "Feature",
      "geometry": {
        "type": "Polygon",
        "coordinates": [
          [
            [
              -0.4880955,
              51.470225
            ],
            [
              -0.4884058,
              51.4702325
            ],
            [
              -0.4884056,
              51.4702597
            ],
            [
              -0.4884051,
              51.4703302
            ],
            [
              -0.4884049,
              51.4703573
            ],
            [
              -0.4880941,
              51.470355
            ],
            [
              -0.4880955,
              51.470225
            ]
          ]
        ]
      },
      "properties": {
        "brand": "WHSmith",
        "brand:website": "https://www.whsmithplc.co.uk/",
        "brand:wikidata": "Q1548712",
        "brand:wikipedia": "en:WHSmith",
        "check_date": "2026-02-04",
        "indoor": "room",
        "level": "2",
        "level_ref": "2",
        "name": "WHSmith",
        "shop": "newsagent",
        "osm_id": 438299731,
        "osm_type": "way"
      }
    },
    {
      "type": "Feature",
      "geometry": {
        "type": "Polygon",
        "coordinates": [
          [
            [
              -0.4868362,
              51.4718027
            ],
            [
              -0.4868374,
              51.4718897
            ],
            [
              -0.48684,
              51.4720847
            ],
            [
              -0.4870232,
              51.4720837
            ],
            [
              -0.4873093,
              51.4720822
            ],
            [
              -0.4873086,
              51.4720291
            ],
            [
              -0.4873079,
              51.4719761
            ],
            [
              -0.4873056,
              51.4718002
            ],
            [
              -0.4868362,
              51.4718027
            ]
          ]
        ]
      },
      "properties": {
        "airside": "yes",
        "amenity": "restaurant",
        "brand": "Wagamama",
        "brand:wikidata": "Q503715",
        "brand:wikipedia": "en:Wagamama",
        "check_date": "2026-02-09",
        "cuisine": "asian",
        "indoor": "room",
        "level": "3",
        "name": "Wagamama",
        "website": "https://www.wagamama.com/restaurants/heathrow/heathrow-t5",
        "osm_id": 438299732,
        "osm_type": "way"
      }
    },
    {
      "type": "Feature",
      "geometry": {
        "type": "Polygon",
        "coordinates": [
          [
            [
              -0.4880866,
              51.4710915
            ],
            [
              -0.4883991,
              51.4710938
            ],
            [
              -0.4883985,
              51.4711726
            ],
            [
              -0.4880857,
              51.4711703
            ],
            [
              -0.4880866,
              51.4710915
            ]
          ]
        ]
      },
      "properties": {
        "brand:wikidata": "Q28404008",
        "check_date": "2026-02-04",
        "disused:shop": "watches",
        "indoor": "room",
        "level": "2",
        "level_ref": "2",
        "name": "Watches of Switzerland",
        "website": "https://www.watches-of-switzerland.co.uk/store/480",
        "osm_id": 438299733,
        "osm_type": "way"
      }
    },
    {
      "type": "Feature",
      "geometry": {
        "type": "Polygon",
        "coordinates": [
          [
            [
              -0.4876716,
              51.4727014
            ],
            [
              -0.4876662,
              51.4725141
            ],
            [
              -0.4873098,
              51.4725181
            ],
            [
              -0.4873156,
              51.4727056
            ],
            [
              -0.4876716,
              51.4727014
            ]
          ]
        ]
      },
      "properties": {
        "check_date": "2026-02-04",
        "indoor": "room",
        "level": "2",
        "level_ref": "2",
        "name": "World Duty Free",
        "shop": "gift",
        "wheelchair": "yes",
        "osm_id": 438299734,
        "osm_type": "way"
      }
    },
    {
      "type": "Feature",
      "geometry": {
        "type": "Polygon",
        "coordinates": [
          [
            [
              -0.4870247,
              51.471288
            ],
            [
              -0.4870232,
              51.4720837
            ],
            [
              -0.4873093,
              51.4720822
            ],
            [
              -0.4875986,
              51.472087
            ],
            [
              -0.4876501,
              51.4720561
            ],
            [
              -0.4876701,
              51.472002
            ],
            [
              -0.4876705,
              51.4719536
            ],
            [
              -0.4876246,
              51.4718757
            ],
            [
              -0.4875843,
              51.4717718
            ],
            [
              -0.4875649,
              51.4716466
            ],
            [
              -0.487585,
              51.4714859
            ],
            [
              -0.4876347,
              51.4713653
            ],
            [
              -0.487686,
              51.471285
            ],
            [
              -0.4870247,
              51.471288
            ]
          ]
        ]
      },
      "properties": {
        "check_date": "2026-02-04",
        "indoor": "room",
        "level": "2",
        "level_ref": "2",
        "name": "World Duty Free",
        "shop": "gift",
        "osm_id": 438299736,
        "osm_type": "way"
      }
    },
    {
      "type": "Feature",
      "geometry": {
        "type": "Polygon",
        "coordinates": [
          [
            [
              -0.4883709,
              51.4720354
            ],
            [
              -0.4883734,
              51.4719465
            ],
            [
              -0.4883735,
              51.4718696
            ],
            [
              -0.4883783,
              51.471506
            ],
            [
              -0.4883766,
              51.4714489
            ],
            [
              -0.4883792,
              51.4712526
            ],
            [
              -0.4880732,
              51.4712516
            ],
            [
              -0.4880544,
              51.4713245
            ],
            [
              -0.4880573,
              51.4713902
            ],
            [
              -0.488084,
              51.4714482
            ],
            [
              -0.4881138,
              51.4715061
            ],
            [
              -0.4881297,
              51.4715839
            ],
            [
              -0.4881313,
              51.471665
            ],
            [
              -0.488116,
              51.4717476
            ],
            [
              -0.4880888,
              51.4718183
            ],
            [
              -0.4880541,
              51.4718699
            ],
            [
              -0.4880356,
              51.471952
            ],
            [
              -0.4880566,
              51.4720341
            ],
            [
              -0.4883709,
              51.4720354
            ]
          ]
        ]
      },
      "properties": {
        "check_date": "2026-02-04",
        "indoor": "room",
        "level": "2",
        "level_ref": "2",
        "name": "World Duty Free",
        "shop": "gift",
        "osm_id": 438299737,
        "osm_type": "way"
      }
    },
    {
      "type": "Feature",
      "geometry": {
        "type": "Polygon",
        "coordinates": [
          [
            [
              -0.4883719,
              51.472087
            ],
            [
              -0.4883709,
              51.4720354
            ],
            [
              -0.4880566,
              51.4720341
            ],
            [
              -0.4880626,
              51.4720849
            ],
            [
              -0.4883719,
              51.472087
            ]
          ]
        ]
      },
      "properties": {
        "check_date": "2026-02-04",
        "indoor": "room",
        "level": "2",
        "level_ref": "2",
        "name": "World of Whiskies",
        "shop": "alcohol",
        "osm_id": 438299738,
        "osm_type": "way"
      }
    },
    {
      "type": "Feature",
      "geometry": {
        "type": "Polygon",
        "coordinates": [
          [
            [
              -0.4872955,
              51.4711166
            ],
            [
              -0.4877553,
              51.471114
            ],
            [
              -0.4877599,
              51.4713113
            ],
            [
              -0.4873,
              51.4713139
            ],
            [
              -0.4872955,
              51.4711166
            ]
          ]
        ]
      },
      "properties": {
        "airside": "yes",
        "brand": "Boots",
        "brand:wikidata": "Q6123139",
        "check_date": "2026-02-09",
        "indoor": "room",
        "level": "3",
        "name": "Boots",
        "shop": "chemist",
        "website": "https://www.boots.com/stores/1145-heathrow-t5-airside-departures-tw6-2ga",
        "osm_id": 438299739,
        "osm_type": "way"
      }
    },
    {
      "type": "Feature",
      "geometry": {
        "type": "Polygon",
        "coordinates": [
          [
            [
              -0.4522976,
              51.4713729
            ],
            [
              -0.4522265,
              51.4713403
            ],
            [
              -0.4522626,
              51.4713083
            ],
            [
              -0.4522831,
              51.4712907
            ],
            [
              -0.4523446,
              51.471318
            ],
            [
              -0.4523413,
              51.4713209
            ],
            [
              -0.4523513,
              51.4713253
            ],
            [
              -0.4523372,
              51.4713371
            ],
            [
              -0.4523266,
              51.4713472
            ],
            [
              -0.4523205,
              51.4713525
            ],
            [
              -0.4523135,
              51.4713574
            ],
            [
              -0.4522976,
              51.4713729
            ]
          ]
        ]
      },
      "properties": {
        "building:part": "yes",
        "indoor": "corridor",
        "level": "0",
        "osm_id": 570155575,
        "osm_type": "way"
      }
    },
    {
      "type": "Feature",
      "geometry": {
        "type": "Polygon",
        "coordinates": [
          [
            [
              -0.4891152,
              51.4714144
            ],
            [
              -0.4889468,
              51.471416
            ],
            [
              -0.4889415,
              51.4711983
            ],
            [
              -0.4891162,
              51.4711967
            ],
            [
              -0.4891152,
              51.4714144
            ]
          ]
        ]
      },
      "properties": {
        "amenity": "cafe",
        "brand": "Costa",
        "brand:wikidata": "Q608845",
        "brand:wikipedia": "en:Costa Coffee",
        "cuisine": "coffee_shop",
        "diet:vegan": "yes",
        "diet:vegetarian": "yes",
        "indoor": "area",
        "indoor_seating": "yes",
        "level": "0",
        "level_ref": "0",
        "name": "Costa",
        "outdoor_seating": "no",
        "takeaway": "yes",
        "osm_id": 827407044,
        "osm_type": "way"
      }
    },
    {
      "type": "Feature",
      "geometry": {
        "type": "Polygon",
        "coordinates": [
          [
            [
              -0.4883719,
              51.4723106
            ],
            [
              -0.4880592,
              51.4723078
            ],
            [
              -0.4880593,
              51.4722576
            ],
            [
              -0.4883719,
              51.4722606
            ],
            [
              -0.4883719,
              51.4723106
            ]
          ]
        ]
      },
      "properties": {
        "brand": "Reiss",
        "brand:wikidata": "Q7310479",
        "check_date": "2025-11-17",
        "indoor": "room",
        "level": "2",
        "level_ref": "2",
        "name": "Reiss",
        "payment:cash": "yes",
        "payment:credit_cards": "yes",
        "payment:debit_cards": "yes",
        "shop": "clothes",
        "osm_id": 1342986781,
        "osm_type": "way"
      }
    },
    {
      "type": "Feature",
      "geometry": {
        "type": "Polygon",
        "coordinates": [
          [
            [
              -0.4880923,
              51.4706973
            ],
            [
              -0.4877485,
              51.4706973
            ],
            [
              -0.4877485,
              51.4707583
            ],
            [
              -0.4870247,
              51.4707583
            ],
            [
              -0.4870247,
              51.4700479
            ],
            [
              -0.4880923,
              51.4700479
            ],
            [
              -0.4880923,
              51.4706973
            ]
          ]
        ]
      },
      "properties": {
        "access": "customers",
        "airside": "yes",
        "amenity": "lounge",
        "bar": "yes",
        "check_date": "2026-02-09",
        "customers": "airline",
        "food": "yes",
        "indoor": "room",
        "internet_access": "wlan",
        "level": "3",
        "membership": "yes",
        "name": "Concorde Lounge",
        "operator": "British Airways",
        "toilets": "yes",
        "osm_id": 1461185486,
        "osm_type": "way"
      }
    },
    {
      "type": "Feature",
      "geometry": {
        "type": "Polygon",
        "coordinates": [
          [
            [
              -0.4877453,
              51.4710102
            ],
            [
              -0.4877452,
              51.4710782
            ],
            [
              -0.487577,
              51.471078
            ],
            [
              -0.4875771,
              51.4710101
            ],
            [
              -0.4877453,
              51.4710102
            ]
          ]
        ]
      },
      "properties": {
        "indoor": "area",
        "information": "helpdesk",
        "level": "2",
        "level_ref": "2",
        "name": "British Airways Customer Services South",
        "tourism": "information",
        "osm_id": 1461185493,
        "osm_type": "way"
      }
    }
  ]
}