{"type":"FeatureCollection","features":[{"type":"Feature","geometry":{"type":"Point","coordinates":[-0.4428058,51.4813607]},"properties":{"entrance":"yes","osm_id":253822111,"osm_type":"node","_label":"Entrance 01"}},{"type":"Feature","geometry":{"type":"Point","coordinates":[-0.4903996,51.4727889]},"properties":{"access":"destination","barrier":"lift_gate","destination":"Heathrow Terminal 5 Short-Stay Car Park","entrance":"parking","level":"2.5","osm_id":254324066,"osm_type":"node","_label":"Heathrow Terminal 5 Short-Stay Car Park"}},{"type":"Feature","geometry":{"type":"Point","coordinates":[-0.490526,51.4733404]},"properties":{"entrance":"yes","osm_id":1240449633,"osm_type":"node","_label":"Entrance 02"}},{"type":"Feature","geometry":{"type":"Point","coordinates":[-0.4910574,51.4733895]},"properties":{"entrance":"yes","osm_id":1240449735,"osm_type":"node","_label":"Entrance 03"}},{"type":"Feature","geometry":{"type":"Point","coordinates":[-0.46825,51.4818071]},"properties":{"entrance":"main","osm_id":1298854754,"osm_type":"node","_label":"Main Entrance 01"}},{"type":"Feature","geometry":{"type":"Point","coordinates":[-0.4501742,51.4688587]},"properties":{"entrance":"yes","indoor":"yes","level":"0","osm_id":1465031789,"osm_type":"node","_label":"Entrance 04"}},{"type":"Feature","geometry":{"type":"Point","coordinates":[-0.4460098,51.4602771]},"properties":{"entrance":"yes","osm_id":1493007121,"osm_type":"node","_label":"Entrance 05"}},{"type":"Feature","geometry":{"type":"Point","coordinates":[-0.4891566,51.4704452]},"properties":{"entrance":"yes","level_ref":"0","osm_id":1501375995,"osm_type":"node","_label":"Entrance 06"}},{"type":"Feature","geometry":{"type":"Point","coordinates":[-0.4894437,51.4704446]},"properties":{"entrance":"yes","level":"0","level_ref":"0;3","repeat_on":"3","osm_id":1501376001,"osm_type":"node","_label":"Entrance 07"}},{"type":"Feature","geometry":{"type":"Point","coordinates":[-0.4891634,51.4711007]},"properties":{"entrance":"yes","level":"0","level_ref":"0","repeat_on":"3","osm_id":1501376046,"osm_type":"node","_label":"Entrance 08"}},{"type":"Feature","geometry":{"type":"Point","coordinates":[-0.4894386,51.4710999]},"properties":{"entrance":"yes","level":"0","level_ref":"0","repeat_on":"3","osm_id":1501376053,"osm_type":"node","_label":"Entrance 09"}},{"type":"Feature","geometry":{"type":"Point","coordinates":[-0.4894195,51.4717444]},"properties":{"entrance":"yes","level":"0","level_ref":"0","repeat_on":"3","osm_id":1501376084,"osm_type":"node","_label":"Entrance 10"}},{"type":"Feature","geometry":{"type":"Point","coordinates":[-0.4891701,51.4717449]},"properties":{"entrance":"yes","osm_id":1501376094,"osm_type":"node","_label":"Entrance 11"}},{"type":"Feature","geometry":{"type":"Point","coordinates":[-0.4896763,51.4733852]},"properties":{"entrance":"yes","osm_id":1501376256,"osm_type":"node","_label":"Entrance 12"}},{"type":"Feature","geometry":{"type":"Point","coordinates":[-0.4896455,51.4733853]},"properties":{"entrance":"yes","osm_id":1744175713,"osm_type":"node","_label":"Entrance 13"}},{"type":"Feature","geometry":{"type":"Point","coordinates":[-0.4524042,51.4711656]},"properties":{"entrance":"yes","level":"0","name":"Exit D","osm_id":1747549315,"osm_type":"node","_label":"Exit D"}},{"type":"Feature","geometry":{"type":"Point","coordinates":[-0.4461045,51.48057]},"properties":{"entrance":"main","osm_id":2010515680,"osm_type":"node","_label":"Main Entrance 02"}},{"type":"Feature","geometry":{"type":"Point","coordinates":[-0.4456767,51.4799778]},"properties":{"entrance":"yes","osm_id":2010515738,"osm_type":"node","_label":"Entrance 14"}},{"type":"Feature","geometry":{"type":"Point","coordinates":[-0.4813288,51.4832818]},"properties":{"entrance":"main","osm_id":2010762379,"osm_type":"node","_label":"Main Entrance 03"}},{"type":"Feature","geometry":{"type":"Point","coordinates":[-0.4566109,51.4704444]},"properties":{"entrance":"yes","indoor":"yes","level":"0","osm_id":3516614024,"osm_type":"node","_label":"Entrance 15"}},{"type":"Feature","geometry":{"type":"Point","coordinates":[-0.4526954,51.4710685]},"properties":{"entrance":"yes","level":"0","name":"Exit B","osm_id":3839855110,"osm_type":"node","_label":"Exit B"}},{"type":"Feature","geometry":{"type":"Point","coordinates":[-0.4527486,51.4712779]},"properties":{"entrance":"yes","level":"0","name":"Exit C","osm_id":3839855111,"osm_type":"node","_label":"Exit C"}},{"type":"Feature","geometry":{"type":"Point","coordinates":[-0.4515736,51.469131]},"properties":{"entrance":"yes","level":"5","osm_id":6468096526,"osm_type":"node","_label":"Entrance 16"}},{"type":"Feature","geometry":{"type":"Point","coordinates":[-0.4515765,51.4696287]},"properties":{"entrance":"yes","level":"5","osm_id":6468096528,"osm_type":"node","_label":"Entrance 17"}},{"type":"Feature","geometry":{"type":"Point","coordinates":[-0.4515832,51.47025]},"properties":{"entrance":"yes","level":"5","osm_id":6468096530,"osm_type":"node","_label":"Entrance 18"}},{"type":"Feature","geometry":{"type":"Point","coordinates":[-0.4309822,51.4798948]},"properties":{"entrance":"yes","osm_id":6594223444,"osm_type":"node","_label":"Entrance 19"}},{"type":"Feature","geometry":{"type":"Point","coordinates":[-0.4382457,51.4811147]},"properties":{"entrance":"yes","osm_id":6777976585,"osm_type":"node","_label":"Entrance 20"}},{"type":"Feature","geometry":{"type":"Point","coordinates":[-0.4702326,51.4809526]},"properties":{"entrance":"yes","osm_id":8819055263,"osm_type":"node","_label":"Entrance 21"}},{"type":"Feature","geometry":{"type":"Point","coordinates":[-0.4575059,51.4815333]},"properties":{"entrance":"main","level":"0","osm_id":9484466822,"osm_type":"node","_label":"Main Entrance 04"}},{"type":"Feature","geometry":{"type":"Point","coordinates":[-0.4325942,51.4810688]},"properties":{"entrance":"main","osm_id":9484672261,"osm_type":"node","_label":"Main Entrance 05"}},{"type":"Feature","geometry":{"type":"Point","coordinates":[-0.5030279,51.4854797]},"properties":{"entrance":"yes","osm_id":10086831842,"osm_type":"node","_label":"Entrance 22"}},{"type":"Feature","geometry":{"type":"Point","coordinates":[-0.4529426,51.4711305]},"properties":{"entrance":"yes","level":"0","osm_id":10945644058,"osm_type":"node","_label":"Entrance 23"}},{"type":"Feature","geometry":{"type":"Point","coordinates":[-0.4891803,51.4727195]},"properties":{"entrance":"yes","indoor":"yes","level":"0","level_ref":"0;3","repeat_on":"3","osm_id":10945790377,"osm_type":"node","_label":"Entrance 24"}},{"type":"Feature","geometry":{"type":"Point","coordinates":[-0.4894331,51.4727185]},"properties":{"entrance":"yes","level":"0","level_ref":"0","repeat_on":"3","osm_id":10945790385,"osm_type":"node","_label":"Entrance 25"}},{"type":"Feature","geometry":{"type":"Point","coordinates":[-0.449002,51.4688543]},"properties":{"entrance":"yes","indoor":"yes","level":"0","osm_id":10960145401,"osm_type":"node","_label":"Entrance 26"}},{"type":"Feature","geometry":{"type":"Point","coordinates":[-0.4488611,51.4688504]},"properties":{"entrance":"yes","indoor":"yes","level":"0","osm_id":10960145402,"osm_type":"node","_label":"Entrance 27"}},{"type":"Feature","geometry":{"type":"Point","coordinates":[-0.4487122,51.4688473]},"properties":{"entrance":"yes","indoor":"yes","level":"0","osm_id":10960145403,"osm_type":"node","_label":"Entrance 28"}},{"type":"Feature","geometry":{"type":"Point","coordinates":[-0.4484372,51.4688438]},"properties":{"entrance":"yes","indoor":"yes","level":"0","osm_id":10960145404,"osm_type":"node","_label":"Entrance 29"}},{"type":"Feature","geometry":{"type":"Point","coordinates":[-0.4500036,51.4688546]},"properties":{"entrance":"yes","indoor":"yes","level":"0","osm_id":10960145405,"osm_type":"node","_label":"Entrance 30"}},{"type":"Feature","geometry":{"type":"Point","coordinates":[-0.4498427,51.4688406]},"properties":{"entrance":"yes","indoor":"yes","level":"0","osm_id":10960145406,"osm_type":"node","_label":"Entrance 31"}},{"type":"Feature","geometry":{"type":"Point","coordinates":[-0.4503644,51.4688505]},"properties":{"entrance":"yes","indoor":"yes","level":"0","osm_id":10960145407,"osm_type":"node","_label":"Entrance 32"}},{"type":"Feature","geometry":{"type":"Point","coordinates":[-0.447717,51.4703577]},"properties":{"entrance":"yes","indoor":"yes","level":"0","osm_id":10960145427,"osm_type":"node","_label":"Entrance 33"}},{"type":"Feature","geometry":{"type":"Point","coordinates":[-0.4477162,51.4700805]},"properties":{"entrance":"yes","indoor":"yes","level":"0","osm_id":10960145431,"osm_type":"node","_label":"Entrance 34"}},{"type":"Feature","geometry":{"type":"Point","coordinates":[-0.447814,51.4698891]},"properties":{"entrance":"yes","indoor":"yes","level":"0","osm_id":10960145433,"osm_type":"node","_label":"Entrance 35"}},{"type":"Feature","geometry":{"type":"Point","coordinates":[-0.4477082,51.4696845]},"properties":{"entrance":"yes","indoor":"yes","level":"0","osm_id":10960145435,"osm_type":"node","_label":"Entrance 36"}},{"type":"Feature","geometry":{"type":"Point","coordinates":[-0.4477039,51.4694792]},"properties":{"entrance":"yes","indoor":"yes","level":"0","osm_id":10960145437,"osm_type":"node","_label":"Entrance 37"}},{"type":"Feature","geometry":{"type":"Point","coordinates":[-0.4477036,51.4692337]},"properties":{"entrance":"yes","indoor":"yes","level":"0","osm_id":10960145439,"osm_type":"node","_label":"Entrance 38"}},{"type":"Feature","geometry":{"type":"Point","coordinates":[-0.4477048,51.4689625]},"properties":{"entrance":"yes","indoor":"yes","level":"0","osm_id":10960145441,"osm_type":"node","_label":"Entrance 39"}},{"type":"Feature","geometry":{"type":"Point","coordinates":[-0.4472668,51.4705868]},"properties":{"entrance":"yes","indoor":"yes","level":"0","osm_id":10960145465,"osm_type":"node","_label":"Entrance 40"}},{"type":"Feature","geometry":{"type":"Point","coordinates":[-0.4580982,51.4713767]},"properties":{"entrance":"yes","indoor":"yes","level":"0","osm_id":10960173480,"osm_type":"node","_label":"Entrance 41"}},{"type":"Feature","geometry":{"type":"Point","coordinates":[-0.4584151,51.4712416]},"properties":{"entrance":"yes","indoor":"yes","level":"0","osm_id":10960173482,"osm_type":"node","_label":"Entrance 42"}},{"type":"Feature","geometry":{"type":"Point","coordinates":[-0.4583843,51.4710627]},"properties":{"entrance":"yes","indoor":"yes","level":"0","osm_id":10960173483,"osm_type":"node","_label":"Entrance 43"}},{"type":"Feature","geometry":{"type":"Point","coordinates":[-0.4582661,51.4711113]},"properties":{"entrance":"yes","layer":"0","osm_id":10960173484,"osm_type":"node","_label":"Entrance 44"}},{"type":"Feature","geometry":{"type":"Point","coordinates":[-0.4581981,51.4708937]},"properties":{"entrance":"yes","indoor":"yes","level":"0","osm_id":10960173486,"osm_type":"node","_label":"Entrance 45"}},{"type":"Feature","geometry":{"type":"Point","coordinates":[-0.4580385,51.4707486]},"properties":{"entrance":"yes","indoor":"yes","level":"0","osm_id":10960173488,"osm_type":"node","_label":"Entrance 46"}},{"type":"Feature","geometry":{"type":"Point","coordinates":[-0.4577047,51.4704454]},"properties":{"entrance":"yes","indoor":"yes","level":"0","osm_id":10960173490,"osm_type":"node","_label":"Entrance 47"}},{"type":"Feature","geometry":{"type":"Point","coordinates":[-0.4575303,51.4702853]},"properties":{"entrance":"yes","indoor":"yes","level":"0","ref":"C","osm_id":10960173492,"osm_type":"node","_label":"Entrance 48"}},{"type":"Feature","geometry":{"type":"Point","coordinates":[-0.4573925,51.4701614]},"properties":{"entrance":"yes","indoor":"yes","level":"0","ref":"B","osm_id":10960173493,"osm_type":"node","_label":"Entrance 49"}},{"type":"Feature","geometry":{"type":"Point","coordinates":[-0.4572002,51.4701922]},"properties":{"entrance":"yes","indoor":"yes","level":"0","ref":"A","osm_id":10960173494,"osm_type":"node","_label":"Entrance 50"}},{"type":"Feature","geometry":{"type":"Point","coordinates":[-0.4569035,51.4724236]},"properties":{"entrance":"yes","indoor":"yes","level":"0","osm_id":10961425035,"osm_type":"node","_label":"Entrance 51"}},{"type":"Feature","geometry":{"type":"Point","coordinates":[-0.4572357,51.4724875]},"properties":{"entrance":"yes","indoor":"yes","level":"0","osm_id":10961425036,"osm_type":"node","_label":"Entrance 52"}},{"type":"Feature","geometry":{"type":"Point","coordinates":[-0.4572594,51.4718265]},"properties":{"entrance":"yes","indoor":"yes","level":"0","osm_id":10961425038,"osm_type":"node","_label":"Entrance 53"}},{"type":"Feature","geometry":{"type":"Point","coordinates":[-0.4566535,51.4722084]},"properties":{"entrance":"yes","indoor":"yes","level":"0","osm_id":10961425040,"osm_type":"node","_label":"Entrance 54"}},{"type":"Feature","geometry":{"type":"Point","coordinates":[-0.451576,51.4694522]},"properties":{"entrance":"yes","level":"1","osm_id":10963006237,"osm_type":"node","_label":"Entrance 55"}},{"type":"Feature","geometry":{"type":"Point","coordinates":[-0.4515833,51.4701097]},"properties":{"entrance":"yes","level":"1","osm_id":10963006240,"osm_type":"node","_label":"Entrance 56"}},{"type":"Feature","geometry":{"type":"Point","coordinates":[-0.4680898,51.4818392]},"properties":{"entrance":"yes","osm_id":11195613566,"osm_type":"node","_label":"Entrance 57"}},{"type":"Feature","geometry":{"type":"Point","coordinates":[-0.4533755,51.4698857]},"properties":{"entrance":"yes","osm_id":11286163517,"osm_type":"node","_label":"Entrance 58"}},{"type":"Feature","geometry":{"type":"Point","coordinates":[-0.4596942,51.4806727]},"properties":{"entrance":"yes","name":"East Entrance","osm_id":11389889409,"osm_type":"node","_label":"East Entrance"}},{"type":"Feature","geometry":{"type":"Point","coordinates":[-0.4477151,51.470222]},"properties":{"entrance":"yes","indoor":"yes","level":"0","osm_id":11517538076,"osm_type":"node","_label":"Entrance 59"}},{"type":"Feature","geometry":{"type":"Point","coordinates":[-0.4364414,51.4831242]},"properties":{"access":"private","door":"yes","entrance":"home","osm_id":11972223964,"osm_type":"node","_label":"Home Entrance 01"}},{"type":"Feature","geometry":{"type":"Point","coordinates":[-0.4363977,51.4831246]},"properties":{"access":"private","door":"yes","entrance":"home","osm_id":11972223966,"osm_type":"node","_label":"Home Entrance 02"}},{"type":"Feature","geometry":{"type":"Point","coordinates":[-0.4363874,51.4829961]},"properties":{"access":"private","door":"yes","entrance":"home","osm_id":11972223967,"osm_type":"node","_label":"Home Entrance 03"}},{"type":"Feature","geometry":{"type":"Point","coordinates":[-0.4363877,51.4829723]},"properties":{"access":"private","door":"yes","entrance":"home","osm_id":11972223968,"osm_type":"node","_label":"Home Entrance 04"}},{"type":"Feature","geometry":{"type":"Point","coordinates":[-0.4364333,51.4829956]},"properties":{"access":"private","door":"yes","entrance":"home","osm_id":11972242269,"osm_type":"node","_label":"Home Entrance 05"}},{"type":"Feature","geometry":{"type":"Point","coordinates":[-0.4364331,51.482972]},"properties":{"access":"private","door":"yes","entrance":"home","osm_id":11972242271,"osm_type":"node","_label":"Home Entrance 06"}},{"type":"Feature","geometry":{"type":"Point","coordinates":[-0.4364255,51.4828205]},"properties":{"access":"private","door":"yes","entrance":"home","osm_id":11972242272,"osm_type":"node","_label":"Home Entrance 07"}},{"type":"Feature","geometry":{"type":"Point","coordinates":[-0.4364262,51.4828435]},"properties":{"access":"private","door":"yes","entrance":"home","osm_id":11972242274,"osm_type":"node","_label":"Home Entrance 08"}},{"type":"Feature","geometry":{"type":"Point","coordinates":[-0.4363822,51.4828437]},"properties":{"access":"private","door":"yes","entrance":"home","osm_id":11972242275,"osm_type":"node","_label":"Home Entrance 09"}},{"type":"Feature","geometry":{"type":"Point","coordinates":[-0.4363819,51.4828207]},"properties":{"access":"private","door":"yes","entrance":"home","osm_id":11972242276,"osm_type":"node","_label":"Home Entrance 10"}},{"type":"Feature","geometry":{"type":"Point","coordinates":[-0.436379,51.4826921]},"properties":{"access":"private","door":"yes","entrance":"home","osm_id":11972242278,"osm_type":"node","_label":"Home Entrance 11"}},{"type":"Feature","geometry":{"type":"Point","coordinates":[-0.4364231,51.4826919]},"properties":{"access":"private","door":"yes","entrance":"home","osm_id":11972242279,"osm_type":"node","_label":"Home Entrance 12"}},{"type":"Feature","geometry":{"type":"Point","coordinates":[-0.4404607,51.4803096]},"properties":{"entrance":"yes","osm_id":12365328499,"osm_type":"node","_label":"Entrance 60"}},{"type":"Feature","geometry":{"type":"Point","coordinates":[-0.4413845,51.4803389]},"properties":{"entrance":"yes","osm_id":12365328500,"osm_type":"node","_label":"Entrance 61"}},{"type":"Feature","geometry":{"type":"Point","coordinates":[-0.4422997,51.4803714]},"properties":{"entrance":"yes","osm_id":12365336501,"osm_type":"node","_label":"Entrance 62"}},{"type":"Feature","geometry":{"type":"Point","coordinates":[-0.4417843,51.4803711]},"properties":{"entrance":"yes","osm_id":12365336502,"osm_type":"node","_label":"Entrance 63"}},{"type":"Feature","geometry":{"type":"Point","coordinates":[-0.4392819,51.4802651]},"properties":{"entrance":"yes","osm_id":12365336520,"osm_type":"node","_label":"Entrance 64"}},{"type":"Feature","geometry":{"type":"Point","coordinates":[-0.490337,51.4681098]},"properties":{"entrance":"yes","osm_id":12478367619,"osm_type":"node","_label":"Entrance 65"}},{"type":"Feature","geometry":{"type":"Point","coordinates":[-0.490335,51.4680238]},"properties":{"entrance":"yes","osm_id":12478367622,"osm_type":"node","_label":"Entrance 66"}},{"type":"Feature","geometry":{"type":"Point","coordinates":[-0.4903334,51.4679541]},"properties":{"entrance":"yes","osm_id":12478367625,"osm_type":"node","_label":"Entrance 67"}},{"type":"Feature","geometry":{"type":"Point","coordinates":[-0.4903316,51.4678768]},"properties":{"entrance":"yes","osm_id":12478367628,"osm_type":"node","_label":"Entrance 68"}},{"type":"Feature","geometry":{"type":"Point","coordinates":[-0.4903295,51.4677882]},"properties":{"entrance":"yes","osm_id":12478367630,"osm_type":"node","_label":"Entrance 69"}},{"type":"Feature","geometry":{"type":"Point","coordinates":[-0.4903275,51.4677034]},"properties":{"entrance":"yes","osm_id":12478367633,"osm_type":"node","_label":"Entrance 70"}},{"type":"Feature","geometry":{"type":"Point","coordinates":[-0.4903258,51.4676261]},"properties":{"entrance":"yes","osm_id":12478367636,"osm_type":"node","_label":"Entrance 71"}},{"type":"Feature","geometry":{"type":"Point","coordinates":[-0.4903241,51.4675553]},"properties":{"entrance":"yes","osm_id":12478367639,"osm_type":"node","_label":"Entrance 72"}},{"type":"Feature","geometry":{"type":"Point","coordinates":[-0.490322,51.4674628]},"properties":{"entrance":"yes","osm_id":12478367642,"osm_type":"node","_label":"Entrance 73"}},{"type":"Feature","geometry":{"type":"Point","coordinates":[-0.4896403,51.4674653]},"properties":{"entrance":"yes","osm_id":12478367643,"osm_type":"node","_label":"Entrance 74"}},{"type":"Feature","geometry":{"type":"Point","coordinates":[-0.4896411,51.4675627]},"properties":{"entrance":"yes","osm_id":12478367649,"osm_type":"node","_label":"Entrance 75"}},{"type":"Feature","geometry":{"type":"Point","coordinates":[-0.4896416,51.4676324]},"properties":{"entrance":"yes","osm_id":12478367651,"osm_type":"node","_label":"Entrance 76"}},{"type":"Feature","geometry":{"type":"Point","coordinates":[-0.4896422,51.4677033]},"properties":{"entrance":"yes","osm_id":12478367654,"osm_type":"node","_label":"Entrance 77"}},{"type":"Feature","geometry":{"type":"Point","coordinates":[-0.4896429,51.4677919]},"properties":{"entrance":"yes","osm_id":12478367657,"osm_type":"node","_label":"Entrance 78"}},{"type":"Feature","geometry":{"type":"Point","coordinates":[-0.4896436,51.4678856]},"properties":{"entrance":"yes","osm_id":12478367660,"osm_type":"node","_label":"Entrance 79"}},{"type":"Feature","geometry":{"type":"Point","coordinates":[-0.4896442,51.4679553]},"properties":{"entrance":"yes","osm_id":12478367663,"osm_type":"node","_label":"Entrance 80"}},{"type":"Feature","geometry":{"type":"Point","coordinates":[-0.4896448,51.4680274]},"properties":{"entrance":"yes","osm_id":12478367666,"osm_type":"node","_label":"Entrance 81"}},{"type":"Feature","geometry":{"type":"Point","coordinates":[-0.4896455,51.4681161]},"properties":{"entrance":"yes","osm_id":12478367669,"osm_type":"node","_label":"Entrance 82"}},{"type":"Feature","geometry":{"type":"Point","coordinates":[-0.4888966,51.4675453]},"properties":{"entrance":"yes","osm_id":12478380909,"osm_type":"node","_label":"Entrance 83"}},{"type":"Feature","geometry":{"type":"Point","coordinates":[-0.4887061,51.4675466]},"properties":{"entrance":"yes","osm_id":12478380910,"osm_type":"node","_label":"Entrance 84"}},{"type":"Feature","geometry":{"type":"Point","coordinates":[-0.4306269,51.480855]},"properties":{"entrance":"main","osm_id":12967361767,"osm_type":"node","_label":"Main Entrance 06"}},{"type":"Feature","geometry":{"type":"Point","coordinates":[-0.4891764,51.472353]},"properties":{"entrance":"yes","level":"3","level_ref":"3","osm_id":13400797568,"osm_type":"node","_label":"Entrance 85"}},{"type":"Feature","geometry":{"type":"Point","coordinates":[-0.4891782,51.4725225]},"properties":{"entrance":"yes","level":"0","level_ref":"0","osm_id":13400797569,"osm_type":"node","_label":"Entrance 86"}},{"type":"Feature","geometry":{"type":"Point","coordinates":[-0.4891701,51.4717449]},"properties":{"entrance":"yes","level_ref":"0","osm_id":13400852845,"osm_type":"node","_label":"Entrance 87"}},{"type":"Feature","geometry":{"type":"Point","coordinates":[-0.4888925,51.4730797]},"properties":{"door":"yes","level":"3","osm_id":13400853063,"osm_type":"node","_label":"Entrance Entrance 01"}},{"type":"Feature","geometry":{"type":"Point","coordinates":[-0.4868374,51.4718897]},"properties":{"door":"yes","level":"3","osm_id":13400853137,"osm_type":"node","_label":"Entrance Entrance 02"}},{"type":"Feature","geometry":{"type":"Point","coordinates":[-0.4873086,51.4720291]},"properties":{"door":"yes","level":"3","osm_id":13400853146,"osm_type":"node","_label":"Entrance Entrance 03"}}]}